SL-16 R/B               
1 22566U 93016B   26062.91373228  .00000326  00000+0  19177-3 0  9999
2 22566  71.0059 227.3123 0011387 322.1919  37.8403 14.15305477701350
COSMOS 2242             
1 22626U 93024A   26062.68513548  .00002150  00000+0  18658-3 0  9990
2 22626  82.5156 272.4617 0015592 330.3518  29.6819 14.96519769779499
SL-16 R/B               
1 22803U 93059B   26062.83040628  .00000021  00000+0  34041-4 0  9996
2 22803  70.9920  23.4812 0018795 224.8484 135.1121 14.17232219678700
ARIANE 40 R/B           
1 22830U 93061H   26062.76297588  .00000284  00000+0  12001-3 0  9992
2 22830  98.4930 131.7675 0009648 304.7167  55.3108 14.32857420693258
COSMOS 2278             
1 23087U 94023A   26062.79837318  .00000316  00000+0  18962-3 0  9998
2 23087  71.0542 187.4212 0007655  25.2253 334.9242 14.14375747643977
SL-16 R/B               
1 23088U 94023B   26062.49402748 -.00000094  00000+0 -23975-4 0  9997
2 23088  70.9987  83.8998 0005605 291.6296  68.4229 14.15013435645215
SL-16 R/B               
1 23343U 94074B   26062.64830262  .00000663  00000+0  95484-4 0  9994
2 23343  97.7117  93.7106 0005388 233.8032 239.3935 14.79399863686351
SL-16 R/B               
1 23405U 94077B   26062.83137805 -.00000241  00000+0 -98773-4 0  9998
2 23405  70.9851   4.8124 0003424 220.3517 139.7353 14.15562239615403
ARIANE 40+ R/B          
1 23561U 95021B   26062.78059569  .00000402  00000+0  14195-3 0  9997
2 23561  98.4509 134.3430 0007385 152.3208 320.1378 14.39767523618394
SL-16 R/B               
1 23705U 95058B   26062.76741985 -.00000007  00000+0  20758-4 0  9990
2 23705  71.0211 192.6874 0011013 136.2562 223.9436 14.15492756567011
SL-16 R/B               
1 24298U 96051B   26062.79208696  .00000092  00000+0  76456-4 0  9991
2 24298  70.7596 187.7206 0015609 156.7831 203.3997 14.12413839520819
ORBVIEW 2 (SEASTAR)     
1 24883U 97037A   26062.91141980  .00000457  00000+0  17512-3 0  9994
2 24883  98.8555 227.0704 0003178  83.5626 276.5920 14.35489946507644
