CCSDS_OMM_VERS = 2.0
CREATION_DATE  = 
ORIGINATOR     = 

OBJECT_NAME    = SL-16 R/B
OBJECT_ID      = 1993-016B
CENTER_NAME    = EARTH
REF_FRAME      = TEME
TIME_SYSTEM    = UTC
MEAN_ELEMENT_THEORY = SGP/SGP4

EPOCH          = 2026-03-03T21:55:46.468992
MEAN_MOTION    = 14.15305477
ECCENTRICITY   = .00113873
INCLINATION    = 71.0059
RA_OF_ASC_NODE = 227.3123
ARG_OF_PERICENTER = 322.1919
MEAN_ANOMALY   = 37.8403

EPHEMERIS_TYPE = 0
CLASSIFICATION_TYPE = U
NORAD_CAT_ID   = 22566
ELEMENT_SET_NO = 999
REV_AT_EPOCH   = 70135
BSTAR          = .19177401E-3
MEAN_MOTION_DOT = .326E-5
MEAN_MOTION_DDOT = 0

CCSDS_OMM_VERS = 2.0
CREATION_DATE  = 
ORIGINATOR     = 

OBJECT_NAME    = COSMOS 2242
OBJECT_ID      = 1993-024A
CENTER_NAME    = EARTH
REF_FRAME      = TEME
TIME_SYSTEM    = UTC
MEAN_ELEMENT_THEORY = SGP/SGP4

EPOCH          = 2026-03-03T16:26:35.705472
MEAN_MOTION    = 14.96519769
ECCENTRICITY   = .00155921
INCLINATION    = 82.5156
RA_OF_ASC_NODE = 272.4617
ARG_OF_PERICENTER = 330.3518
MEAN_ANOMALY   = 29.6819

EPHEMERIS_TYPE = 0
CLASSIFICATION_TYPE = U
NORAD_CAT_ID   = 22626
ELEMENT_SET_NO = 999
REV_AT_EPOCH   = 77949
BSTAR          = .18658239E-3
MEAN_MOTION_DOT = .215E-4
MEAN_MOTION_DDOT = 0

CCSDS_OMM_VERS = 2.0
CREATION_DATE  = 
ORIGINATOR     = 

OBJECT_NAME    = SL-16 R/B
OBJECT_ID      = 1993-059B
CENTER_NAME    = EARTH
REF_FRAME      = TEME
TIME_SYSTEM    = UTC
MEAN_ELEMENT_THEORY = SGP/SGP4

EPOCH          = 2026-03-03T19:55:47.102592
MEAN_MOTION    = 14.17232219
ECCENTRICITY   = .00187956
INCLINATION    = 70.9920
RA_OF_ASC_NODE = 23.4812
ARG_OF_PERICENTER = 224.8484
MEAN_ANOMALY   = 135.1121

EPHEMERIS_TYPE = 0
CLASSIFICATION_TYPE = U
NORAD_CAT_ID   = 22803
ELEMENT_SET_NO = 999
REV_AT_EPOCH   = 67870
BSTAR          = .34040923E-4
MEAN_MOTION_DOT = .21E-6
MEAN_MOTION_DDOT = 0

CCSDS_OMM_VERS = 2.0
CREATION_DATE  = 
ORIGINATOR     = 

OBJECT_NAME    = ARIANE 40 R/B
OBJECT_ID      = 1993-061H
CENTER_NAME    = EARTH
REF_FRAME      = TEME
TIME_SYSTEM    = UTC
MEAN_ELEMENT_THEORY = SGP/SGP4

EPOCH          = 2026-03-03T18:18:41.116032
MEAN_MOTION    = 14.32857420
ECCENTRICITY   = .00096482
INCLINATION    = 98.4930
RA_OF_ASC_NODE = 131.7675
ARG_OF_PERICENTER = 304.7167
MEAN_ANOMALY   = 55.3108

EPHEMERIS_TYPE = 0
CLASSIFICATION_TYPE = U
NORAD_CAT_ID   = 22830
ELEMENT_SET_NO = 999
REV_AT_EPOCH   = 69325
BSTAR          = .12000698E-3
MEAN_MOTION_DOT = .284E-5
MEAN_MOTION_DDOT = 0

CCSDS_OMM_VERS = 2.0
CREATION_DATE  = 
ORIGINATOR     = 

OBJECT_NAME    = COSMOS 2278
OBJECT_ID      = 1994-023A
CENTER_NAME    = EARTH
REF_FRAME      = TEME
TIME_SYSTEM    = UTC
MEAN_ELEMENT_THEORY = SGP/SGP4

EPOCH          = 2026-03-03T19:09:39.442752
MEAN_MOTION    = 14.14375747
ECCENTRICITY   = .00076559
INCLINATION    = 71.0542
RA_OF_ASC_NODE = 187.4212
ARG_OF_PERICENTER = 25.2253
MEAN_ANOMALY   = 334.9242

EPHEMERIS_TYPE = 0
CLASSIFICATION_TYPE = U
NORAD_CAT_ID   = 23087
ELEMENT_SET_NO = 999
REV_AT_EPOCH   = 64397
BSTAR          = .18961696E-3
MEAN_MOTION_DOT = .316E-5
MEAN_MOTION_DDOT = 0

CCSDS_OMM_VERS = 2.0
CREATION_DATE  = 
ORIGINATOR     = 

OBJECT_NAME    = SL-16 R/B
OBJECT_ID      = 1994-023B
CENTER_NAME    = EARTH
REF_FRAME      = TEME
TIME_SYSTEM    = UTC
MEAN_ELEMENT_THEORY = SGP/SGP4

EPOCH          = 2026-03-03T11:51:23.974272
MEAN_MOTION    = 14.15013435
ECCENTRICITY   = .00056058
INCLINATION    = 70.9987
RA_OF_ASC_NODE = 83.8998
ARG_OF_PERICENTER = 291.6296
MEAN_ANOMALY   = 68.4229

EPHEMERIS_TYPE = 0
CLASSIFICATION_TYPE = U
NORAD_CAT_ID   = 23088
ELEMENT_SET_NO = 999
REV_AT_EPOCH   = 64521
BSTAR          = -.23975063E-4
MEAN_MOTION_DOT = -.94E-6
MEAN_MOTION_DDOT = 0

CCSDS_OMM_VERS = 2.0
CREATION_DATE  = 
ORIGINATOR     = 

OBJECT_NAME    = SL-16 R/B
OBJECT_ID      = 1994-074B
CENTER_NAME    = EARTH
REF_FRAME      = TEME
TIME_SYSTEM    = UTC
MEAN_ELEMENT_THEORY = SGP/SGP4

EPOCH          = 2026-03-03T15:33:33.346368
MEAN_MOTION    = 14.79399863
ECCENTRICITY   = .0005388
INCLINATION    = 97.7117
RA_OF_ASC_NODE = 93.7106
ARG_OF_PERICENTER = 233.8032
MEAN_ANOMALY   = 239.3935

EPHEMERIS_TYPE = 0
CLASSIFICATION_TYPE = U
NORAD_CAT_ID   = 23343
ELEMENT_SET_NO = 999
REV_AT_EPOCH   = 68635
BSTAR          = .95484E-4
MEAN_MOTION_DOT = .663E-5
MEAN_MOTION_DDOT = 0

CCSDS_OMM_VERS = 2.0
CREATION_DATE  = 
ORIGINATOR     = 

OBJECT_NAME    = SL-16 R/B
OBJECT_ID      = 1994-077B
CENTER_NAME    = EARTH
REF_FRAME      = TEME
TIME_SYSTEM    = UTC
MEAN_ELEMENT_THEORY = SGP/SGP4

EPOCH          = 2026-03-03T19:57:11.063520
MEAN_MOTION    = 14.15562239
ECCENTRICITY   = .00034243
INCLINATION    = 70.9851
RA_OF_ASC_NODE = 4.8124
ARG_OF_PERICENTER = 220.3517
MEAN_ANOMALY   = 139.7353

EPHEMERIS_TYPE = 0
CLASSIFICATION_TYPE = U
NORAD_CAT_ID   = 23405
ELEMENT_SET_NO = 999
REV_AT_EPOCH   = 61540
BSTAR          = -.98773014E-4
MEAN_MOTION_DOT = -.241E-5
MEAN_MOTION_DDOT = 0

CCSDS_OMM_VERS = 2.0
CREATION_DATE  = 
ORIGINATOR     = 

OBJECT_NAME    = ARIANE 40+ R/B
OBJECT_ID      = 1995-021B
CENTER_NAME    = EARTH
REF_FRAME      = TEME
TIME_SYSTEM    = UTC
MEAN_ELEMENT_THEORY = SGP/SGP4

EPOCH          = 2026-03-03T18:44:03.467616
MEAN_MOTION    = 14.39767523
ECCENTRICITY   = .00073854
INCLINATION    = 98.4509
RA_OF_ASC_NODE = 134.3430
ARG_OF_PERICENTER = 152.3208
MEAN_ANOMALY   = 320.1378

EPHEMERIS_TYPE = 0
CLASSIFICATION_TYPE = U
NORAD_CAT_ID   = 23561
ELEMENT_SET_NO = 999
REV_AT_EPOCH   = 61839
BSTAR          = .14194578E-3
MEAN_MOTION_DOT = .402E-5
MEAN_MOTION_DDOT = 0

CCSDS_OMM_VERS = 2.0
CREATION_DATE  = 
ORIGINATOR     = 

OBJECT_NAME    = SL-16 R/B
OBJECT_ID      = 1995-058B
CENTER_NAME    = EARTH
REF_FRAME      = TEME
TIME_SYSTEM    = UTC
MEAN_ELEMENT_THEORY = SGP/SGP4

EPOCH          = 2026-03-03T18:25:05.075040
MEAN_MOTION    = 14.15492756
ECCENTRICITY   = .00110132
INCLINATION    = 71.0211
RA_OF_ASC_NODE = 192.6874
ARG_OF_PERICENTER = 136.2562
MEAN_ANOMALY   = 223.9436

EPHEMERIS_TYPE = 0
CLASSIFICATION_TYPE = U
NORAD_CAT_ID   = 23705
ELEMENT_SET_NO = 999
REV_AT_EPOCH   = 56701
BSTAR          = .20758087E-4
MEAN_MOTION_DOT = -.7E-7
MEAN_MOTION_DDOT = 0

CCSDS_OMM_VERS = 2.0
CREATION_DATE  = 
ORIGINATOR     = 

OBJECT_NAME    = SL-16 R/B
OBJECT_ID      = 1996-051B
CENTER_NAME    = EARTH
REF_FRAME      = TEME
TIME_SYSTEM    = UTC
MEAN_ELEMENT_THEORY = SGP/SGP4

EPOCH          = 2026-03-03T19:00:36.313344
MEAN_MOTION    = 14.12413839
ECCENTRICITY   = .00156098
INCLINATION    = 70.7596
RA_OF_ASC_NODE = 187.7206
ARG_OF_PERICENTER = 156.7831
MEAN_ANOMALY   = 203.3997

EPHEMERIS_TYPE = 0
CLASSIFICATION_TYPE = U
NORAD_CAT_ID   = 24298
ELEMENT_SET_NO = 999
REV_AT_EPOCH   = 52081
BSTAR          = .76456454E-4
MEAN_MOTION_DOT = .92E-6
MEAN_MOTION_DDOT = 0

CCSDS_OMM_VERS = 2.0
CREATION_DATE  = 
ORIGINATOR     = 

OBJECT_NAME    = ORBVIEW 2 (SEASTAR)
OBJECT_ID      = 1997-037A
CENTER_NAME    = EARTH
REF_FRAME      = TEME
TIME_SYSTEM    = UTC
MEAN_ELEMENT_THEORY = SGP/SGP4

EPOCH          = 2026-03-03T21:52:26.670720
MEAN_MOTION    = 14.35489946
ECCENTRICITY   = .00031785
INCLINATION    = 98.8555
RA_OF_ASC_NODE = 227.0704
ARG_OF_PERICENTER = 83.5626
MEAN_ANOMALY   = 276.5920

EPHEMERIS_TYPE = 0
CLASSIFICATION_TYPE = U
NORAD_CAT_ID   = 24883
ELEMENT_SET_NO = 999
REV_AT_EPOCH   = 50764
BSTAR          = .17512395E-3
MEAN_MOTION_DOT = .457E-5
MEAN_MOTION_DDOT = 0

